     2.11           N: GPS NAV DATA                         RINEX VERSION / TYPE
Alloy 5.45          Receiver Operator   02-MAY-21 10:00:00  PGM / RUN BY / DATE
     .8382D-08   .2235D-07  -.5960D-07  -.1192D-06          ION ALPHA
     .8602D+05   .6554D+05  -.1311D+06  -.4588D+06          ION BETA
     .279396772385D-08  .888178419700D-14   233472     2156 DELTA-UTC: A0,A1,T,W
    18                                                      LEAP SECONDS
                                                            END OF HEADER
 6 21  5  2 10  0  0.0  .119809992611D-04  .341060513165D-11  .000000000000D+00
     .930000000000D+02 -.616250000000D+02  .382408786004D-08  .247935995223D+01
    -.308826565742D-05  .224257889204D-02  .426918268204D-05  .515375897408D+04
     .360000000000D+05  .372529029846D-08 -.306796122321D+01 -.111758708954D-07
     .983873136962D+00  .308562500000D+03 -.980939412750D+00 -.787889961637D-08
     .135719938995D-10  .100000000000D+01  .215600000000D+04  .000000000000D+00
     .200000000000D+01  .000000000000D+00  .419095158577D-08  .930000000000D+02
     .288180000000D+05  .400000000000D+01
32 21  5  2 10  0  0.0  .217864289880D-04 -.454747350886D-12  .000000000000D+00
     .540000000000D+02 -.840625000000D+01  .489448958942D-08 -.112573346174D+01
    -.303611159325D-06  .491626909934D-02  .801123678684D-05  .515365910721D+04
     .360000000000D+05  .968575477600D-07 -.982096664337D+00  .838190317154D-07
     .957073497404D+00  .221875000000D+03 -.237764818968D+01 -.799533303771D-08
     .401088135502D-09  .100000000000D+01  .215600000000D+04  .000000000000D+00
     .200000000000D+01  .000000000000D+00  .465661287308D-09  .540000000000D+02
     .288180000000D+05  .400000000000D+01
24 21  5  2 10  0  0.0  .511370599270D-04  .263753463514D-10  .000000000000D+00
     .990000000000D+02  .102812500000D+02  .531736434671D-08  .260271415118D+01
     .374391674995D-06  .110656394390D-01  .742450356483D-05  .515372945786D+04
     .360000000000D+05 -.800937414169D-07  .256236099548D-02 -.141561031342D-06
     .935503977233D+00  .221593750000D+03  .739399353740D+00 -.809105131048D-08
    -.288583449230D-09  .100000000000D+01  .215600000000D+04  .000000000000D+00
     .280000000000D+01  .000000000000D+00  .279396772385D-08  .990000000000D+02
     .288180000000D+05  .400000000000D+01
25 21  5  2 10  0  0.0  .129548832774D-03  .716227077646D-11  .000000000000D+00
     .830000000000D+02  .770000000000D+02  .448125809096D-08  .612036348171D+00
     .411644577980D-05  .991244253237D-02  .843219459057D-05  .515363625717D+04
     .360000000000D+05 -.707805156708D-07  .111734329594D+01  .782310962677D-07
     .961200978862D+00  .217531250000D+03  .965316285915D+00 -.808462247126D-08
    -.414302971667D-09  .100000000000D+01  .215600000000D+04  .000000000000D+00
     .200000000000D+01  .000000000000D+00  .558793544769D-08  .830000000000D+02
     .288180000000D+05  .400000000000D+01
12 21  5  2  9 59 44.0 -.355690717697D-04 -.511590769747D-11  .000000000000D+00
     .300000000000D+02  .794375000000D+02  .411731435981D-08  .903894184032D+00
     .410899519920D-05  .845736893825D-02  .862404704094D-05  .515375261688D+04
     .359840000000D+05 -.115483999252D-06  .119054330300D+01  .130385160446D-07
     .973813388105D+00  .222687500000D+03  .120672872727D+01 -.789390024120D-08
    -.358943522867D-09  .100000000000D+01  .215600000000D+04  .000000000000D+00
     .200000000000D+01  .000000000000D+00 -.125728547573D-07  .300000000000D+02
     .288180000000D+05  .400000000000D+01
31 21  5  2 10  0  0.0 -.114941503853D-03 -.216004991671D-11  .000000000000D+00
     .700000000000D+02  .168125000000D+02  .494592030315D-08  .110076998479D+01
     .115483999252D-05  .994460447691D-02  .763684511185D-05  .515377185059D+04
     .360000000000D+05  .335276126862D-07  .973310821617D-01  .119209289551D-06
     .956451060872D+00  .228406250000D+03  .260860206583D+00 -.811605235187D-08
    -.462876423518D-09  .100000000000D+01  .215600000000D+04  .000000000000D+00
     .200000000000D+01  .000000000000D+00 -.130385160446D-07  .700000000000D+02
     .322620000000D+05  .400000000000D+01
 2 21  5  2 10  0  0.0 -.600752886385D-03 -.329691829393D-11  .000000000000D+00
     .520000000000D+02 -.592187500000D+02  .416838791580D-08  .251287930703D+01
    -.299699604511D-05  .202169412514D-01  .309012830257D-05  .515366984367D+04
     .360000000000D+05  .223517417908D-06  .314021379917D+01 -.838190317154D-07
     .963096180456D+00  .315968750000D+03 -.152156404247D+01 -.778389565907D-08
    -.717887045734D-10  .100000000000D+01  .215600000000D+04  .000000000000D+00
     .200000000000D+01  .000000000000D+00 -.176951289177D-07  .520000000000D+02
     .288180000000D+05  .400000000000D+01
29 21  5  2  9 59 44.0 -.340043567121D-03 -.659383658785D-11  .000000000000D+00
     .400000000000D+01  .631562500000D+02  .398123726308D-08 -.167963476060D+01
     .325590372086D-05  .179524568375D-02  .363774597645D-05  .515364819717D+04
     .359840000000D+05  .596046447754D-07  .223933931797D+01  .186264514923D-07
     .984080063799D+00  .322031250000D+03  .211620284658D+01 -.802211986778D-08
     .478591363823D-10  .100000000000D+01  .215600000000D+04  .000000000000D+00
     .200000000000D+01  .000000000000D+00 -.977888703346D-08  .400000000000D+01
     .300780000000D+05  .400000000000D+01
32 21  5  2 12  0  0.0  .217836350203D-04 -.454747350886D-12  .000000000000D+00
     .550000000000D+02 -.478125000000D+01  .487520307178D-08 -.755265047021D-01
    -.214204192162D-06  .491671159398D-02  .815093517303D-05  .515365987396D+04
     .432000000000D+05 -.149011611938D-07 -.982154683668D+00  .931322574615D-07
     .957075944866D+00  .223750000000D+03 -.237766259796D+01 -.809247994141D-08
     .400016662300D-09  .100000000000D+01  .215600000000D+04  .000000000000D+00
     .200000000000D+01  .000000000000D+00  .465661287308D-09  .550000000000D+02
     .360180000000D+05  .400000000000D+01
 2 21  5  2 12  0  0.0 -.600776169449D-03 -.329691829393D-11  .000000000000D+00
     .530000000000D+02 -.538437500000D+02  .422946188835D-08 -.272014224162D+01
    -.264681875706D-05  .202171952697D-01  .317022204399D-05  .515366945457D+04
     .432000000000D+05  .245869159698D-06  .314015716376D+01  .502914190292D-07
     .963096019535D+00  .318250000000D+03 -.152154681954D+01 -.779103881375D-08
     .314298806093D-10  .100000000000D+01  .215600000000D+04  .000000000000D+00
     .200000000000D+01  .000000000000D+00 -.176951289177D-07  .530000000000D+02
     .360180000000D+05  .400000000000D+01
24 21  5  2 12  0  0.0  .513270497322D-04  .263753463514D-10  .000000000000D+00
     .183000000000D+03  .126250000000D+02  .540451083386D-08 -.263033092265D+01
     .491738319397D-06  .110652722651D-01  .730156898499D-05  .515373015022D+04
     .432000000000D+05  .135973095894D-06  .250263736489D-02 -.275671482086D-06
     .935501744820D+00  .223875000000D+03  .739412151347D+00 -.825462955274D-08
    -.140362989539D-09  .100000000000D+01  .215600000000D+04  .000000000000D+00
     .280000000000D+01  .000000000000D+00  .279396772385D-08  .183000000000D+03
     .360180000000D+05  .400000000000D+01
31 21  5  2 12  0  0.0 -.114957336336D-03 -.216004991671D-11  .000000000000D+00
     .740000000000D+02  .144375000000D+02  .493699135979D-08  .215082610620D+01
     .847503542900D-06  .994460482616D-02  .807829201221D-05  .515377311897D+04
     .432000000000D+05 -.229105353355D-06  .972718734783D-01  .152736902237D-06
     .956448527097D+00  .224281250000D+03  .260928257144D+00 -.800747640068D-08
    -.282511767749D-09  .100000000000D+01  .215600000000D+04  .000000000000D+00
     .200000000000D+01  .000000000000D+00 -.130385160446D-07  .740000000000D+02
     .360180000000D+05  .400000000000D+01
12 21  5  2 12  0  0.0 -.356058590114D-04 -.511590769747D-11  .000000000000D+00
     .340000000000D+02  .702500000000D+02  .409124184522D-08  .195624042323D+01
     .334158539772D-05  .845787057187D-02  .840611755848D-05  .515375458908D+04
     .432000000000D+05 -.465661287308D-07  .119048637939D+01 -.162050127983D-06
     .973811672102D+00  .222156250000D+03  .120684498390D+01 -.773317926081D-08
    -.300012496725D-09  .100000000000D+01  .215600000000D+04  .000000000000D+00
     .200000000000D+01  .000000000000D+00 -.125728547573D-07  .340000000000D+02
     .360180000000D+05  .400000000000D+01
29 21  5  2 12  0  0.0 -.340090598911D-03 -.659383658785D-11  .000000000000D+00
     .500000000000D+01  .571562500000D+02  .396302221864D-08 -.627467566486D+00
     .297836959362D-05  .179556978401D-02  .396929681301D-05  .515364733315D+04
     .432000000000D+05 -.633299350739D-07  .223928218517D+01  .391155481339D-07
     .984080337365D+00  .315343750000D+03  .211656268201D+01 -.795461705602D-08
    -.375015620906D-10  .100000000000D+01  .215600000000D+04  .000000000000D+00
     .200000000000D+01  .000000000000D+00 -.977888703346D-08  .500000000000D+01
     .360180000000D+05  .400000000000D+01
25 21  5  2 12  0  0.0  .129600055516D-03  .716227077646D-11  .000000000000D+00
     .860000000000D+02  .669375000000D+02  .444161358246D-08  .166210148847D+01
     .333040952682D-05  .991289294325D-02  .866875052452D-05  .515363896751D+04
     .432000000000D+05 -.227242708206D-06  .111728463731D+01 -.502914190292D-07
     .961198652822D+00  .214843750000D+03  .965454364901D+00 -.796461747257D-08
    -.303941231801D-09  .100000000000D+01  .215600000000D+04  .000000000000D+00
     .200000000000D+01  .000000000000D+00  .558793544769D-08  .860000000000D+02
     .360180000000D+05  .400000000000D+01
 6 21  5  2 12  0  0.0  .120052136481D-04  .341060513165D-11  .000000000000D+00
     .940000000000D+02 -.531250000000D+02  .395480759075D-08 -.275354660228D+01
    -.280886888504D-05  .224423408508D-02  .396557152271D-05  .515375580597D+04
     .432000000000D+05  .109896063805D-06 -.306801766405D+01 -.931322574615D-08
     .983872844379D+00  .317406250000D+03 -.981093048406D+00 -.792997317236D-08
    -.603596570791D-10  .100000000000D+01  .215600000000D+04  .000000000000D+00
     .200000000000D+01  .000000000000D+00  .419095158577D-08  .940000000000D+02
     .360180000000D+05  .400000000000D+01
26 21  5  2 12  0  0.0  .799712724984D-04  .511590769747D-11  .000000000000D+00
     .670000000000D+02  .721875000000D+02  .495199198463D-08  .959053480953D+00
     .397488474846D-05  .579799315892D-02  .842101871967D-05  .515380031967D+04
     .432000000000D+05  .633299350739D-07  .107566813920D+01  .111758708954D-07
     .942160067240D+00  .204156250000D+03  .302640959674D+00 -.822177104119D-08
    -.441446959466D-09  .100000000000D+01  .215600000000D+04  .000000000000D+00
     .200000000000D+01  .000000000000D+00  .698491930962D-08  .670000000000D+02
     .379560000000D+05  .400000000000D+01
18 21  5  2 12  0  0.0  .351170543581D-03 -.568434188608D-12  .000000000000D+00
     .870000000000D+02 -.690312500000D+02  .430982237854D-08 -.272829742913D+01
    -.352784991264D-05  .134576112032D-02  .425986945629D-05  .515366643906D+04
     .432000000000D+05 -.372529029846D-08 -.304766471972D+01 -.260770320892D-07
     .968101709734D+00  .300593750000D+03  .292979131263D+01 -.811498087867D-08
    -.225009372544D-10  .100000000000D+01  .215600000000D+04  .000000000000D+00
     .200000000000D+01  .000000000000D+00 -.838190317154D-08  .599000000000D+03
     .383460000000D+05  .400000000000D+01
